STARLINK-35778          
1 66973U 25288Q   26004.50003471  .00099317  00000+0  23580-2 0  9996
2 66973  43.0008  30.9909 0000979 279.1587  37.6513 15.40648698  5485
STARLINK-35780          
1 66974U 25288R   26004.50003471  .00002270  00000+0  61496-4 0  9999
2 66974  43.0004  30.9308 0001025 265.4753  76.2523 15.40747940  5481
STARLINK-35777          
1 66975U 25288S   26004.50003471  .00094476  00000+0  22451-2 0  9995
2 66975  43.0003  30.8981 0001203 268.3765  85.7703 15.40645162  5488
STARLINK-35772          
1 66976U 25288T   26004.45259074  .00071792  00000+0  17102-2 0  9995
2 66976  43.0019  33.1616 0000982 291.4871  68.5881 15.40692633  5385
STARLINK-35770          
1 66977U 25288U   26001.58383638  .00106642  00000+0  17973-2 0  9990
2 66977  43.0009  47.6983 0001130 275.3451  84.7280 15.50604727  4967
STARLINK-35787          
1 66978U 25288V   26004.44522574  .00087430  00000+0  20738-2 0  9999
2 66978  43.0004  31.3322 0003693 260.8242  99.2196 15.40732068  5409
STARLINK-36107          
1 66979U 25288W   26004.41673703  .00085808  00000+0  14511-2 0  9997
2 66979  43.0009  31.1126 0001458 262.3368  97.7327 15.50605586  5402
STARLINK-36086          
1 66980U 25288X   26004.50003471  .00097680  00000+0  23205-2 0  9999
2 66980  43.0001  30.8367 0000778 259.7699 119.2646 15.40638280  5488
STARLINK-36142          
1 66981U 25288Y   26004.50003471  .00105898  00000+0  25141-2 0  9992
2 66981  43.0002  30.7768 0001231 273.5638 130.3467 15.40618513  5488
STARLINK-36113          
1 66982U 25288Z   26004.35150501  .00022682  00000+0  40690-3 0  9999
2 66982  43.0005  31.4807 0009050 121.8294 238.3448 15.49434163  5398
STARLINK-36145          
1 66983U 25288AA  26004.41500570  .00146702  00000+0  24537-2 0  9993
2 66983  43.0001  31.0977 0000817 253.7119 106.3651 15.50648998  5409
STARLINK-35591          
1 66984U 25288AB  26004.41535355  .00069243  00000+0  11751-2 0  9991
2 66984  43.0005  31.1003 0001684 265.3633  94.7035 15.50593297  5405
